NORAD_CAT_ID,OBJECT_NAME,OBJECT_TYPE,EPOCH,MEAN_MOTION,ECCENTRICITY,INCLINATION,RA_OF_ASC_NODE,ARG_OF_PERICENTER,MEAN_ANOMALY,BSTAR,MEAN_MOTION_DOT,MEAN_MOTION_DDOT,TLE_LINE0,TLE_LINE1,TLE_LINE2,SEMIMAJOR_AXIS,PERIOD,APOGEE,PERIGEE,DECAYED
53007.0,STARLINK-4215,PAYLOAD,2024-04-01 12:57:20,15.08849165,0.0001496,53.2201,28.6393,90.2183,269.8981,0.00010532,1.389e-05,0.0,0 STARLINK-4215,1 53007U 22076X   24092.53982239  .00001389  00000-0  10532-3 0  9995,2 53007  53.2201  28.6393 0001496  90.2183 269.8981 15.08849165 96560,6917.852,95.437,540.752,538.682,0.0
53007.0,STARLINK-4215,PAYLOAD,2024-04-01 20:54:17,15.08833897,0.0001328,53.2172,27.1521,90.1725,269.9419,0.00015811,2.229e-05,0.0,0 STARLINK-4215,1 53007U 22076X   24092.87103096  .00002229  00000-0  15811-3 0  9997,2 53007  53.2172  27.1521 0001328  90.1725 269.9419 15.08833897 96617,6917.899,95.438,540.683,538.845,0.0
53007.0,STARLINK-4215,PAYLOAD,2024-04-02 04:51:12,15.08847444,0.0001438,53.2192,25.6652,93.0725,267.0431,0.00015637,2.202e-05,0.0,0 STARLINK-4215,1 53007U 22076X   24093.20222464  .00002202  00000-0  15637-3 0  9993,2 53007  53.2192  25.6652 0001438  93.0725 267.0431 15.08847444 96662,6917.858,95.437,540.717,538.728,0.0
53007.0,STARLINK-4215,PAYLOAD,2024-04-02 12:48:06,15.08858559,0.0001328,53.2196,24.1784,80.1157,279.9985,0.0001743,2.489e-05,0.0,0 STARLINK-4215,1 53007U 22076X   24093.53341382  .00002489  00000-0  17430-3 0  9990,2 53007  53.2196  24.1784 0001328  80.1157 279.9985 15.08858559 96711,6917.824,95.436,540.607,538.77,0.0
53007.0,STARLINK-4215,PAYLOAD,2024-04-02 19:09:41,15.08827322,0.0001471,53.2195,22.9907,79.0305,281.0853,-5.6509e-06,-3.78e-06,0.0,0 STARLINK-4215,1 53007U 22076X   24093.79839425 -.00000378  00000-0 -56509-5 0  9997,2 53007  53.2195  22.9907 0001471  79.0305 281.0853 15.08827322 96750,6917.919,95.438,540.802,538.767,0.0
53007.0,STARLINK-4215,PAYLOAD,2024-04-03 04:41:59,15.08837485,0.0001366,53.2186,21.2029,92.5581,267.5568,1.4078e-05,-6.4e-07,0.0,0 STARLINK-4215,1 53007U 22076X   24094.19583001 -.00000064  00000-0  14078-4 0  9993,2 53007  53.2186  21.2029 0001366  92.5581 267.5568 15.08837485 96816,6917.888,95.438,540.698,538.808,0.0
53007.0,STARLINK-4215,PAYLOAD,2024-04-03 12:38:55,15.08844908,0.0001443,53.2192,19.7174,91.3021,268.8137,0.00011097,1.479e-05,0.0,0 STARLINK-4215,1 53007U 22076X   24094.52702681  .00001479  00000-0  11097-3 0  9994,2 53007  53.2192  19.7174 0001443  91.3021 268.8137 15.08844908 96395,6917.865,95.437,540.729,538.732,0.0
53007.0,STARLINK-4215,PAYLOAD,2024-04-03 19:00:27,15.0884132,0.000167,53.2201,18.5291,91.6883,268.4301,0.00011633,1.564e-05,0.0,0 STARLINK-4215,1 53007U 22076X   24094.79199028  .00001564  00000-0  11633-3 0  9999,2 53007  53.2201  18.5291 0001670  91.6883 268.4301 15.08841320 96433,6917.876,95.437,540.897,538.586,0.0
53007.0,STARLINK-4215,PAYLOAD,2024-04-04 04:32:46,15.08845514,0.000157,53.2196,16.745,93.8294,266.2878,0.00012768,1.745e-05,0.0,0 STARLINK-4215,1 53007U 22076X   24095.18942769  .00001745  00000-0  12768-3 0  9992,2 53007  53.2196  16.7450 0001570  93.8294 266.2878 15.08845514 96492,6917.864,95.437,540.815,538.642,0.0
53007.0,STARLINK-4215,PAYLOAD,2024-04-04 22:02:01,15.08845154,0.000167,53.2199,13.4738,92.9439,267.1745,0.00011904,1.607e-05,0.0,0 STARLINK-4215,1 53007U 22076X   24095.91806759  .00001607  00000-0  11904-3 0  9999,2 53007  53.2199  13.4738 0001670  92.9439 267.1745 15.08845154 96606,6917.865,95.437,540.885,538.574,0.0
53007.0,STARLINK-4215,PAYLOAD,2024-04-05 01:12:47,15.0884377,0.0001368,53.218,12.8805,84.9448,275.17,0.00021753,3.176e-05,0.0,0 STARLINK-4215,1 53007U 22076X   24096.05054850  .00003176  00000-0  21753-3 0  9998,2 53007  53.2180  12.8805 0001368  84.9448 275.1700 15.08843770 96623,6917.869,95.437,540.68,538.788,0.0
53007.0,STARLINK-4215,PAYLOAD,2024-04-05 18:42:01,15.08840635,0.0001278,53.2174,9.6095,84.9418,275.172,0.00019261,2.779e-05,0.0,0 STARLINK-4215,1 53007U 22076X   24096.77918884  .00002779  00000-0  19261-3 0  9992,2 53007  53.2174   9.6095 0001278  84.9418 275.1720 15.08840635 97202,6917.878,95.438,540.628,538.859,0.0
53007.0,STARLINK-4215,PAYLOAD,2024-04-05 21:52:48,15.08840389,0.0001426,53.2174,9.0134,86.1083,274.0072,8.0614e-05,9.95e-06,0.0,0 STARLINK-4215,1 53007U 22076X   24096.91166893  .00000995  00000-0  80614-4 0  9992,2 53007  53.2174   9.0134 0001426  86.1083 274.0072 15.08840389 96750,6917.879,95.438,540.731,538.758,0.0
53007.0,STARLINK-4215,PAYLOAD,2024-04-06 10:35:52,15.08845057,0.0001416,53.2191,6.636,97.1656,262.9497,0.00010082,1.317e-05,0.0,0 STARLINK-4215,1 53007U 22076X   24097.44158494  .00001317  00000-0  10082-3 0  9999,2 53007  53.2191   6.6360 0001416  97.1656 262.9497 15.08845057 96833,6917.865,95.437,540.71,538.75,0.0
53007.0,STARLINK-4215,PAYLOAD,2024-04-06 21:43:35,15.08834797,0.0001811,53.2191,4.5576,103.9462,256.1732,-5.8472e-05,-1.218e-05,0.0,0 STARLINK-4215,1 53007U 22076X   24097.90527198 -.00001218  00000-0 -58472-4 0  9999,2 53007  53.2191   4.5576 0001811 103.9462 256.1732 15.08834797 96903,6917.896,95.438,541.014,538.508,0.0
53007.0,STARLINK-4215,PAYLOAD,2024-04-07 10:26:39,15.08857057,9.07e-05,53.2187,2.1732,75.2413,284.868,0.00018045,2.587e-05,0.0,0 STARLINK-4215,1 53007U 22076X   24098.43517490  .00002587  00000-0  18045-3 0  9991,2 53007  53.2187   2.1732 0000907  75.2413 284.8680 15.08857057 96980,6917.828,95.436,540.321,539.066,0.0
53007.0,STARLINK-4215,PAYLOAD,2024-04-07 21:34:21,15.0884871,0.0001496,53.2205,0.0951,94.3776,265.7388,0.00017108,2.436e-05,0.0,0 STARLINK-4215,1 53007U 22076X   24098.89885988  .00002436  00000-0  17108-3 0  9993,2 53007  53.2205   0.0951 0001496  94.3776 265.7388 15.08848710 97529,6917.854,95.437,540.754,538.684,0.0
53007.0,STARLINK-4215,PAYLOAD,2024-04-08 10:17:25,15.08867785,0.0001364,53.2202,357.7156,85.166,274.9488,0.00026325,3.907e-05,0.0,0 STARLINK-4215,1 53007U 22076X   24099.42876164  .00003907  00000-0  26325-3 0  9994,2 53007  53.2202 357.7156 0001364  85.1660 274.9488 15.08867785 97604,6917.795,95.436,540.604,538.717,0.0
53007.0,STARLINK-4215,PAYLOAD,2024-04-08 21:25:10,15.08817579,0.0001508,53.2192,355.6352,95.2108,264.9056,-3.5804e-05,-8.57e-06,0.0,0 STARLINK-4215,1 53007U 22076X   24099.89248369 -.00000857  00000-0 -35804-4 0  9991,2 53007  53.2192 355.6352 0001508  95.2108 264.9056 15.08817579 97679,6917.949,95.439,540.857,538.771,0.0
53007.0,STARLINK-4215,PAYLOAD,2024-04-08 23:00:33,15.0882247,0.0001498,53.2191,355.3357,87.4672,272.6492,-7.521e-05,-1.484e-05,0.0,0 STARLINK-4215,1 53007U 22076X   24099.95872222 -.00001484  00000-0 -75210-4 0  9991,2 53007  53.2191 355.3357 0001498  87.4672 272.6492 15.08822470 97213,6917.934,95.439,540.835,538.763,0.0
53007.0,STARLINK-4215,PAYLOAD,2024-04-09 02:11:19,15.08823754,0.0001587,53.2189,354.7407,85.9837,274.1336,-6.5312e-05,-1.327e-05,0.0,0 STARLINK-4215,1 53007U 22076X   24100.09120250 -.00001327  00000-0 -65312-4 0  9994,2 53007  53.2189 354.7407 0001587  85.9837 274.1336 15.08823754 97236,6917.93,95.439,540.893,538.697,0.0
53007.0,STARLINK-4215,PAYLOAD,2024-04-09 22:51:19,15.08842856,0.0001458,53.2192,350.8761,86.3047,273.8112,2.0524e-05,3.9e-07,0.0,0 STARLINK-4215,1 53007U 22076X   24100.95230902  .00000039  00000-0  20524-4 0  9998,2 53007  53.2192 350.8761 0001458  86.3047 273.8112 15.08842856 97361,6917.872,95.437,540.745,538.728,0.0
53007.0,STARLINK-4215,PAYLOAD,2024-04-10 09:59:01,15.08848021,0.0001486,53.2186,348.794,85.8912,274.225,0.00012216,1.657e-05,0.0,0 STARLINK-4215,1 53007U 22076X   24101.41598471  .00001657  00000-0  12216-3 0  9993,2 53007  53.2186 348.7940 0001486  85.8912 274.2250 15.08848021 97431,6917.856,95.437,540.749,538.693,0.0
53007.0,STARLINK-4215,PAYLOAD,2024-04-10 21:06:44,15.08823373,0.0001531,53.218,346.7122,92.7406,267.3761,0.00013437,1.85e-05,0.0,0 STARLINK-4215,1 53007U 22076X   24101.87968227  .00001850  00000-0  13437-3 0  9994,2 53007  53.2180 346.7122 0001531  92.7406 267.3761 15.08823373 97973,6917.931,95.439,540.855,538.737,0.0
53007.0,STARLINK-4215,PAYLOAD,2024-04-10 22:42:07,15.08826221,0.0001415,53.2178,346.4145,95.8736,264.2417,0.0001891,2.722e-05,0.0,0 STARLINK-4215,1 53007U 22076X   24101.94592193  .00002722  00000-0  18910-3 0  9997,2 53007  53.2178 346.4145 0001415  95.8736 264.2417 15.08826221 97512,6917.923,95.438,540.766,538.809,0.0
53007.0,STARLINK-4215,PAYLOAD,2024-04-11 09:49:49,15.08837766,0.0001555,53.2186,344.332,100.3745,259.7423,0.00029237,4.368e-05,0.0,0 STARLINK-4215,1 53007U 22076X   24102.40960036  .00004368  00000-0  29237-3 0  9996,2 53007  53.2186 344.3320 0001555 100.3745 259.7423 15.08837766 98052,6917.887,95.438,540.828,538.676,0.0
53007.0,STARLINK-4215,PAYLOAD,2024-04-11 22:32:54,15.08852963,0.0001406,53.2176,341.9542,97.6614,262.4538,0.00092043,0.00014396,0.0,0 STARLINK-4215,1 53007U 22076X   24102.93951904  .00014396  00000-0  92043-3 0  9995,2 53007  53.2176 341.9542 0001406  97.6614 262.4538 15.08852963 97668,6917.841,95.437,540.678,538.733,0.0
53007.0,STARLINK-4215,PAYLOAD,2024-04-12 01:43:40,15.08858818,0.0001399,53.2177,341.3594,97.4866,262.6285,0.00097566,0.00015282,0.0,0 STARLINK-4215,1 53007U 22076X   24103.07199719  .00015282  00000-0  97566-3 0  9999,2 53007  53.2177 341.3594 0001399  97.4866 262.6285 15.08858818 98159,6917.823,95.436,540.656,538.72,0.0
53007.0,STARLINK-4215,PAYLOAD,2024-04-12 22:23:41,15.08851863,0.0001418,53.2188,337.4909,97.8437,262.2716,0.00034543,5.216e-05,0.0,0 STARLINK-4215,1 53007U 22076X   24103.93311451  .00005216  00000-0  34543-3 0  9995,2 53007  53.2188 337.4909 0001418  97.8437 262.2716 15.08851863 97817,6917.844,95.437,540.69,538.728,0.0
53007.0,STARLINK-4215,PAYLOAD,2024-04-13 20:39:05,15.08839992,0.0001436,53.2187,333.3288,101.2031,258.9123,-2.0048e-05,-6.07e-06,0.0,0 STARLINK-4215,1 53007U 22076X   24104.86047631 -.00000607  00000-0 -20048-4 0  9991,2 53007  53.2187 333.3288 0001436 101.2031 258.9123 15.08839992 98422,6917.88,95.438,540.739,538.752,0.0
